{
    "links": {
        "self": "http://www.neowsapp.com/rest/v1/neo/3684729?api_key=iIulBulltgU6a56xZRHN4H3l9WmuAYTsLGpBGhQ2"
    },
    "id": "3684729",
    "neo_reference_id": "3684729",
    "name": "(2014 QG365)",
    "designation": "2014 QG365",
    "nasa_jpl_url": "http://ssd.jpl.nasa.gov/sbdb.cgi?sstr=3684729",
    "absolute_magnitude_h": 22.7,
    "estimated_diameter": {
        "kilometers": {
            "estimated_diameter_min": 0.0766575574,
            "estimated_diameter_max": 0.1714115092
        },
        "meters": {
            "estimated_diameter_min": 76.6575573531,
            "estimated_diameter_max": 171.4115092306
        },
        "miles": {
            "estimated_diameter_min": 0.0476327831,
            "estimated_diameter_max": 0.1065101409
        },
        "feet": {
            "estimated_diameter_min": 251.5011804664,
            "estimated_diameter_max": 562.3737359442
        }
    },
    "is_potentially_hazardous_asteroid": false,
    "close_approach_data": [
        {
            "close_approach_date": "2014-10-06",
            "close_approach_date_full": "2014-Oct-06 11:31",
            "epoch_date_close_approach": 1412595060000,
            "relative_velocity": {
                "kilometers_per_second": "5.1244820484",
                "kilometers_per_hour": "18448.135374317",
                "miles_per_hour": "11462.9538941138"
            },
            "miss_distance": {
                "astronomical": "0.2066265347",
                "lunar": "80.3777219983",
                "kilometers": "30910889.476601089",
                "miles": "19207136.0740254682"
            },
            "orbiting_body": "Earth"
        }
    ],
    "orbital_data": {
        "orbit_id": "9",
        "orbit_determination_date": "2017-04-06 08:39:01",
        "first_observation_date": "2014-08-27",
        "last_observation_date": "2014-10-22",
        "data_arc_in_days": 56,
        "observations_used": 24,
        "orbit_uncertainty": "7",
        "minimum_orbit_intersection": ".169829",
        "jupiter_tisserand_invariant": "3.215",
        "epoch_osculation": "2459000.5",
        "eccentricity": ".544338117737632",
        "semi_major_axis": "2.547054464762398",
        "inclination": "3.267888978099638",
        "ascending_node_longitude": "326.3509133611891",
        "orbital_period": "1484.758343768329",
        "perihelion_distance": "1.160595631638403",
        "perihelion_argument": "53.40844964653134",
        "aphelion_distance": "3.933513297886393",
        "perihelion_time": "2458431.285820264811",
        "mean_anomaly": "138.0137754838856",
        "mean_motion": ".2424636988981768",
        "equinox": "J2000",
        "orbit_class": {
            "orbit_class_type": "AMO",
            "orbit_class_description": "Near-Earth asteroid orbits similar to that of 1221 Amor",
            "orbit_class_range": "1.017 AU < q (perihelion) < 1.3 AU"
        }
    },
    "is_sentry_object": false
}